{"122414":{"to":"Exeter St Davids","ref":"160 (SW)","from":"Basingstoke","name":"Basingstoke to Exeter Line","type":"route","route":"railway","network":"national","operator":"Network Rail","operator:wikidata":"Q1501071"},"137923":{"name":"Aldeburgh Branch Line","type":"route","route":"railway","wikidata":"Q4713496","passenger":"no","wikipedia":"en:Aldeburgh Branch Line"},"138693":{"name":"Paddington to Reading","type":"route","route":"railway","tracks":"4","operator":"Network Rail","electrified":"no","operator:wikidata":"Q1501071"},"138742":{"name":"East Suffolk Line","type":"route","route":"railway","operator":"Network Rail","wikidata":"Q5329453","wikipedia":"en:East Suffolk Line","line_speed":"40-75 mph","strategic_route":"Route 7 Great Eastern","operator:wikidata":"Q1501071"},"138744":{"fee":"yes","ref":"GEML","name":"Great Eastern Main Line","type":"route","fixme":"needs working","route":"railway","network":"Greater Anglia","voltage":"25000","interval":"25","operator":"Network Rail","wikidata":"Q1502917","frequency":"50","wikipedia":"en:Great Eastern Main Line","line_speed":"60-105 mph","electrified":"yes","strategic_route":"Route 7 Great Eastern","operator:wikidata":"Q1501071","line_classification":"primary","public_transport:version":"1"},"138836":{"SRS":"07.11","name":"Wherry Lines","type":"route","route":"railway","railway":"rail","operator":"Network Rail","wikidata":"Q7608228","wikipedia":"en:Wherry Lines","electrified":"no","strategic_route":"Route 7 Great Eastern","operator:wikidata":"Q1501071","line_classification":"rural"},"141898":{"SRS":"07.07","name":"Mayflower Line","type":"route","route":"railway","voltage":"25000","operator":"Network Rail","wikidata":"Q6797232","frequency":"50","wikipedia":"en:Mayflower Line","electrified":"yes","freight_gauge":"W10","strategic_route":"Route 7 Great Eastern","operator:wikidata":"Q1501071","line_classification":"London & South East Commuter"},"141900":{"SRS":"07.08","name":"Sunshine Coast Line","type":"route","route":"railway","voltage":"25000","operator":"Network Rail","wikidata":"Q7641459","frequency":"50","wikipedia":"en:Sunshine Coast Line","electrified":"yes","freight_gauge":"W6","strategic_route":"Route 7 Great Eastern","operator:wikidata":"Q1501071","line_classification":"London & South East Commuter"},"141903":{"SRS":"07.10","name":"Gainsborough Line","type":"route","route":"railway","tracks":"1","alt_name":"Sudbury Branch Line","operator":"Network Rail","wikidata":"Q5517293","wikipedia":"en:Gainsborough Line","electrified":"no","freight_gauge":"W6","strategic_route":"Route 7 Great Eastern","line_classification":"rural"},"141904":{"SRS":"07.06","name":"Braintree Branch Line","type":"route","route":"railway","tracks":"1","voltage":"25000","operator":"Network Rail","wikidata":"Q4955938","frequency":"50","wikipedia":"en:Braintree Branch Line","electrified":"yes","freight_gauge":"W6","strategic_route":"Route 7 Great Eastern","operator:wikidata":"Q1501071","line_classification":"London & South East"},"141908":{"SRS":"07.05","name":"Shenfield to Southend Victoria Line","type":"route","route":"railway","railway":"rail","voltage":"25000","operator":"Network Rail","wikidata":"Q7494235","frequency":"50","wikipedia":"en:Shenfield to Southend Line","electrified":"yes","freight_gauge":"W6","strategic_route":"Route 7 Great Eastern","operator:wikidata":"Q1501071","line_classification":"London & South East Commuter"},"141917":{"name":"West Anglia Main Line","type":"route","route":"railway","operator":"Network Rail","wikidata":"Q7984317","wikipedia":"en:West Anglia Main Line","strategic_route":"Route 5 West Anglia","operator:wikidata":"Q1501071","line_classification":"London & South East Commuter"},"142003":{"SRS":"05.05","name":"Cambridge Line","type":"route","route":"railway","tracks":"2","network":"National Rail","voltage":"25000","operator":"First Capital Connect","wikidata":"Q5025469","frequency":"50","wikipedia":"en:Cambridge Line","strategic_route":"Route 5 West Anglia","line_classification":"London & South East Commuter"},"142019":{"SRS":"05.03","name":"Hertford East Branch Line","type":"route","route":"railway","voltage":"25000","operator":"Network Rail","wikidata":"Q5744695","frequency":"50","wikipedia":"en:Hertford East Branch Line","electrified":"yes","freight_gauge":"W6","strategic_route":"Route 5 West Anglia","operator:wikidata":"Q1501071","line_classification":"London & South East Commuter"},"142758":{"SRS":"05.07","name":"Ely to Peterborough Line","type":"route","route":"railway","operator":"Network Rail","wikidata":"Q5368443","wikipedia":"en:Ely to Peterborough Line","electrified":"no","strategic_route":"Route 5 West Anglia","operator:wikidata":"Q1501071","line_classification":"secondary"},"145706":{"SRS":"07.05","ref":"NXEA","name":"Crouch Valley Line","type":"route","route":"railway","tracks":"1","railway":"rail","voltage":"25000","operator":"Network Rail","wikidata":"Q5189027","frequency":"50","wikipedia":"en:Crouch Valley Line","electrified":"yes","freight_gauge":"W6","strategic_route":"Route 7 Great Eastern","operator:wikidata":"Q1501071","line_classification":"London & South East Commuter"},"148788":{"name":"SRS 07.01 Liverpool Street – Shenfield","type":"route","route":"railway","voltage":"25000","operator":"Network Rail","wikidata":"Q7000885","frequency":"50","wikipedia":"en:Network Rail Route 7 (Great Eastern)","electrified":"contact_line","strategic_route":"Route 7 Great Eastern","operator:wikidata":"Q1501071","line_classification":"primary"},"150709":{"SRS":"18.10","name":"Abbey Line","type":"route","route":"railway","tracks":"1","voltage":"25000","operator":"Network Rail","wikidata":"Q19883","frequency":"50","wikipedia":"en:Abbey Line","line_speed":"40-75 mph","electrified":"yes","loading_gauge":"W6","strategic_route":"Route 18 - West Coast Main Line","operator:wikidata":"Q1501071","line_classification":"rural"},"150790":{"SRS":"18.12","name":"Marston Vale Line","type":"route","route":"railway","tracks":"2","operator":"Network Rail","wikidata":"Q6774009","wikipedia":"en:Marston Vale Line","line_speed":"60 mph","electrified":"no","loading_gauge":"W8","strategic_route":"Route 18 - West Coast Main Line","operator:wikidata":"Q1501071","line_classification":"rural"},"150987":{"SRS":"08.03","name":"Hertford Loop Line","type":"route","route":"railway","voltage":"25000","operator":"Network Rail","wikidata":"Q5744702","frequency":"50","wikipedia":"en:Hertford Loop Line","line_speed":"75 mph","electrified":"yes","loading_gauge":"W9","strategic_route":"Route 8 - East Coast Main Line","operator:wikidata":"Q1501071","line_classification":"London and South East Commuter"},"162879":{"name":"Talyllyn","type":"route","route":"railway","operator":"Rheilffordd Talyllyn Railway Company","wikidata":"Q648932","wikipedia":"en:Talyllyn Railway"},"163448":{"name":"Bala Lake Railway","type":"route","route":"railway","name:cy":"Rheilffordd Llyn Tegid","name:en":"Bala Lake Railway"},"163545":{"name":"Vale of Rheidol Railway","type":"route","route":"railway","name:cy":"Rheilffordd Dyffryn Rheidol","website":"https://www.rheidolrailway.co.uk/","wikidata":"Q3309550","wikipedia":"en:Vale of Rheidol Railway"},"163552":{"name":"Welshpool And Llanfair Light Railway","type":"route","route":"railway"},"163553":{"name":"Corris Railway","type":"route","route":"railway"},"163611":{"name":"Ruislip Lido Railway","type":"route","gauge":"305","route":"railway","usage":"tourism","railway":"miniature"},"163613":{"name":"Leighton Buzzard Light Railway","type":"route","route":"railway"},"163852":{"name":"Brecon Mountain Railway","type":"route","route":"railway"},"163896":{"name":"East Somerset Railway","type":"route","route":"railway"},"163912":{"name":"Avon Valley Railway","type":"route","route":"railway","website":"http://www.avonvalleyrailway.co.uk/"},"163920":{"name":"East Kent Railway","type":"route","route":"railway"},"163921":{"url":"http://www.kesr.org.uk","name":"Kent and East Sussex Railway","type":"route","route":"railway","railway":"heritage"},"163968":{"url":"http://www.east-lancs-rly.co.uk","name":"East Lancashire Railway","type":"route","route":"railway","operator":"East Lancashire Railway Preservation Society"},"164265":{"url":"http://www.bluebell-railway.co.uk/","name":"Bluebell Railway","type":"route","route":"railway"},"164268":{"url":"http://www.bodminandwenfordrailway.co.uk/","name":"Bodmin & Wenford Railway","type":"route","route":"railway"},"164273":{"url":"http://www.swanagerailway.co.uk/","name":"Swanage Railway","type":"route","route":"railway","tourism":"attraction","wikidata":"Q7653559"},"164276":{"url":"http://www.iwsteamrailway.co.uk/","name":"Isle of Wight Steam Railway","type":"route","route":"railway"},"164295":{"url":"http://www.lavender-line.co.uk/","name":"The Lavender Line","type":"route","route":"railway"},"164298":{"url":"http://www.spavalleyrailway.co.uk","name":"Spa Valley Railway","type":"route","route":"railway","wikidata":"Q7572155","wikipedia":"en:Spa Valley Railway"},"164301":{"url":"http://www.deanforestrailway.co.uk","name":"Dean Forest Railway","type":"route","route":"railway","railway":"heritage","wikidata":"Q5246154","wikipedia":"en:Dean Forest Railway"},"164312":{"url":"http://www.cholsey-wallingford-railway.com/","name":"Cholsey and Walingford Railway","type":"route","route":"railway","railway":"heritage","wikidata":"Q5104397","wikipedia":"en:Cholsey and Wallingford Railway"},"164313":{"url":"http://www.chinnorrailway.co.uk/","name":"Chinnor and Princes Risborough Railway","type":"route","route":"railway","railway":"heritage","wikidata":"Q5101196","wikipedia":"en:Chinnor and Princes Risborough Railway"},"164960":{"url":"http://www.gwsr.com/","name":"Gloucestershire Warwickshire Railway","type":"route","route":"railway","railway":"heritage","wikidata":"Q5572122","wikipedia":"en:Gloucestershire Warwickshire Railway"},"165263":{"url":"http://www.chasewaterrailway.co.uk","name":"Chasewater Railway","type":"route","route":"railway","railway":"heritage","wikidata":"Q5087259","wikipedia":"en:Chasewater Railway"},"165267":{"url":"http://www.gcrailway.co.uk","name":"Great Central Railway","type":"route","route":"railway","railway":"heritage","wikidata":"Q5598946","wikipedia":"en:Great Central Railway (preserved)"},"165388":{"url":"http://www.churnet-valley-railway.co.uk","name":"Churnet Valley Railway","type":"route","route":"railway","railway":"heritage","wikidata":"Q5118309","wikipedia":"en:Churnet Valley Railway"},"166452":{"ref":"17.01","name":"Strategic Rail Route 17 SRS 17.01","type":"route","route":"railway","maxspeed":"100 mph","operator":"Network Rail","operator:wikidata":"Q1501071","line_classification":"primary"},"166453":{"ref":"17.02","name":"Strategic Rail Route 17 SRS 17.02","type":"route","route":"railway","maxspeed":"75 mph","operator":"Network Rail","operator:wikidata":"Q1501071","line_classification":"primary"},"167925":{"url":"http://www.foxfieldrailway.co.uk/","name":"Foxfield Light Railway","type":"route","route":"railway","railway":"heritage","wikidata":"Q5477131","wikipedia":"en:Foxfield Light Railway"},"167930":{"url":"http://www.llangollen-railway.co.uk/","name":"Llangollen Railway","type":"route","route":"railway","name:cy":"Rheilffordd Llangollen","name:en":"Llangollen Railway","railway":"heritage","wikidata":"Q10967059","wikipedia":"en:Llangollen Railway"},"180779":{"name":"Peak Rail","type":"route","route":"railway","railway":"heritage"},"192519":{"name":"Cotswold Line (Ascott-Moreton)","type":"route","route":"railway","tracks":"2","operator":"Network Rail","operator:wikidata":"Q1501071"},"192520":{"name":"Cotswold Line (Moreton-Worcester)","type":"route","route":"railway","tracks":"1","operator":"Network Rail","operator:wikidata":"Q1501071"},"193007":{"name":"Cherwell Valley Line","type":"route","route":"railway","operator":"Network Rail","wikidata":"Q5092664","wikipedia":"en:Cherwell Valley line","operator:wikidata":"Q1501071"},"193008":{"name":"Oxford-Aynho","type":"route","route":"railway","tracks":"2","operator":"Network Rail","operator:wikidata":"Q1501071"},"193011":{"name":"Aynho-Leamington","type":"route","route":"railway","tracks":"2","operator":"Network Rail","passenger_lines":"2","operator:wikidata":"Q1501071"},"193012":{"name":"Leamington-Coventry","type":"route","route":"railway","tracks":"1","operator":"Network Rail","operator:wikidata":"Q1501071"},"193014":{"name":"Reading-Didcot","type":"route","route":"railway","operator":"Network Rail","operator:wikidata":"Q1501071"},"225578":{"name":"Larkhall Line","type":"route","route":"railway"},"226824":{"name":"Zoofari Monorail","type":"route","route":"railway"},"227466":{"name":"Alton Towers Monorail","type":"route","route":"railway"},"282107":{"ref":"Dearne Valley","name":"Dearne Valley Line","type":"route","route":"railway","colour":"#4DB848","network":"local","operator":"Network Rail","operator:wikidata":"Q1501071"},"287278":{"ref":"Ebbw Vale","name":"Ebbw Valley Line","type":"route","route":"railway","tt_ref":"127","network":"Valleys","operator":"Transport for Wales Rail","wikidata":"Q5331573","wikipedia":"en:Ebbw Valley Railway","operator:cy":"Trafnidiaeth Cymru","operator:en":"Transport for Wales"},"422585":{"name":"South Devon Railway","type":"route","route":"railway"},"452117":{"ref":"Buxton","name":"Buxton Line","type":"route","route":"railway","operator":"Network Rail","wikidata":"Q5003270","wikipedia":"en:Buxton line","operator:wikidata":"Q1501071"},"452939":{"name":"Plym Valley Railway","type":"route","route":"railway"},"452942":{"name":"Dartmouth Steam Railway","type":"route","route":"railway","wikidata":"Q5225731","wikipedia":"en:Dartmouth Steam Railway"},"571741":{"to":"Princes Risborough","ref":"CR","via":"Little Kimble;Monks Risborough","from":"Aylesbury","name":"Aylesbury–Princes Risborough","type":"route","route":"railway","operator":"Network Rail","operator:wikidata":"Q1501071"},"1257824":{"to":"Inverness","from":"Perth","name":"Highland Main Line","type":"route","route":"railway","wikidata":"Q1617936","wikipedia":"en:Highland Main Line","electrified":"no"},"1317388":{"name":"Invergarry and Fort Augustus Railway","note":"historic railway, in use until 1947, now abandoned","type":"route","route":"railway","end_date":"1933-12-01","wikidata":"Q16848372","wikipedia":"en:Invergarry and Fort Augustus Railway","start_date":"1903-07-22"},"1356158":{"name":"Cairngorm Mountain Railway","type":"route","route":"railway","wikidata":"Q2330645","wikipedia":"en:Cairngorm Mountain Railway"},"1719075":{"url":"http://www.miniaturerailwayworld.co.uk/nessislands.html","name":"Ness Islands Railway","type":"route","gauge":"184","route":"railway","wikidata":"Q15261796","wikipedia":"en:Ness Islands Railway"},"1824643":{"name":"Arun Valley Line","type":"route","route":"railway"},"1824644":{"name":"Medway Valley Line","type":"route","route":"railway","operator":"South Eastern"},"1829251":{"name":"Chatham Main Line - Ramsgate Branch","type":"route","route":"railway"},"1829252":{"name":"Chatham Main Line","type":"route","route":"railway","operator":"South Eastern","wikidata":"Q5087674","wikipedia":"en:Chatham Main Line"},"1830560":{"to":"Mallaig","from":"Crianlarich","name":"West Highland Line (Crianlarich - Mallaig section)","note":"The West Highland Line continues from Crianlarich to Glasgow Queen Street, mapped in a separate relation.","type":"route","route":"railway"},"1830562":{"to":"Crianlarich","from":"Glasgow Queen Street","name":"West Highland Line (Glasgow - Crianlarich section)","note":"At Crianlarich, the line branches into the routes to Mallaig and to Oban, mapped in separate relations","type":"route","route":"railway","wikidata":"Q233283","wikipedia":"en:West Highland Line"},"1841000":{"name":"Shrewsbury to Chester Line","type":"route","route":"railway"},"1853698":{"to":"Edinburgh Waverley","from":"London King's Cross","name":"East Coast Main Line","type":"route","route":"railway"},"1856280":{"name":"South Wales Main Line","type":"route","route":"railway","name:cy":"Prif Linell De Cymru","name:en":"South Wales Main Line"},"1856281":{"name":"Swansea District Railway","type":"route","route":"railway","name:en":"Swansea District Railway"},"1856282":{"name":"Welsh Marches Line","type":"route","route":"railway","name:cy":"Llinell y Mers","name:en":"Welsh Marches Line","name:hu":"Walesi határvidék vasútvonal","network":"Transport for Wales Trafnidiaeth Cymru","operator":"Network Rail","operator:wikidata":"Q1501071"},"1856283":{"name":"Worcester Birmingham Line","type":"route","route":"railway"},"1861083":{"name":"East Lancashire Line","type":"route","route":"railway","operator":"Network Rail","operator:wikidata":"Q1501071"},"1861084":{"name":"Northampton Loop Line","type":"route","route":"railway"},"1966414":{"to":"Aylsham","from":"Wroxham","name":"Bure Valley Railway","type":"route","gauge":"381","route":"railway","website":"http://www.bvrw.co.uk/","wikidata":"Q4998335","wikipedia":"en:Bure Valley Railway","electrified":"no","description:en":"Narrow-gauge (15 inch) railway built on the trackbed of an abandoned normal-gauge railway."},"1974548":{"name":"West Lancashire Light Railway","type":"route","gauge":"610","route":"railway","usage":"tourism","wikidata":"Q7985701","wikipedia":"en:West Lancashire Light Railway","electrified":"no"},"2236601":{"name":"Channel Tunnel Rail Link","note":"all track, including Temple Meads","type":"route","route":"railway","alt_name":"High Speed 1","wikidata":"Q277604","wikipedia":"en:High Speed 1","short_name":"HS1"},"2388266":{"name":"High Marnham Test Track","type":"route","route":"railway","wikidata":"Q5755910","wikipedia":"en:High Marnham Test Track"},"2433714":{"name":"Derwent Valley Light Railway","type":"route","route":"railway"},"2517737":{"name":"Basingstoke to Reading Line","type":"route","route":"railway","operator":"Network Rail","operator:wikidata":"Q1501071"},"2582592":{"to":"Carlisle","from":"Settle","name":"Settle-Carlisle Line","type":"route","route":"railway","wikidata":"Q803210","wikipedia":"en:Settle–Carlisle line"},"2584511":{"name":"Airedale Line","type":"route","route":"railway","wikidata":"Q4698668","wikipedia":"en:Airedale line"},"2584512":{"to":"Morecambe","via":"Skipton;Carnforth;Lancaster","from":"Leeds","name":"Leeds to Morecambe Line","note":"Leeds-Skipton section also known as \\\"Airedale Line\\\"","type":"route","route":"railway","wikidata":"Q802622","wikipedia":"en:Leeds–Morecambe line"},"2956938":{"ref":"XR","name":"Crossrail","type":"route","route":"railway","operator":"Transport for London","wikidata":"Q732649","wikipedia":"en:Crossrail"},"3223286":{"name":"Edinburgh South Suburban Railway","type":"route","route":"railway","alt_name":"Edinburgh Suburban and Southside Junction Railway","wikipedia":"en:Edinburgh Suburban and Southside Junction Railway"},"3367456":{"name":"Huddersfield Line","type":"route","route":"railway","network":"National","operator":"Transpennine Express","wikidata":"Q5928259","wikipedia":"en:Huddersfield line"},"3392042":{"name":"Tay Coast Line","note":"only northern section from Perth at the moment","type":"route","route":"railway"},"3538175":{"name":"Birchley Railway","note":"Acording to website the railway has now perminantly closed","type":"route","route":"railway","website":"https://www.facebook.com/favershamminiaturerailway/","alt_name":"Birchley Miniature Railway"},"3540916":{"name":"North Ings Farm Railway","type":"route","route":"railway","website":"http://www.northingsfarmmuseum.co.uk/","alt_name":"North Ings Farm Museum Railway","wikipedia":"en:North Ings Farm Museum"},"3976309":{"name":"Longleat Railway","type":"route","route":"railway"},"3981040":{"name":"Heaton Park Tramway","type":"route","route":"railway","wikidata":"Q15223453","wikipedia":"en:Heaton Park Tramway"},"4147095":{"to":"Lincoln Central","from":"Sheffield","name":"Sheffield to Lincoln Line","type":"route","route":"railway","wikidata":"Q7492808","abandoned":"no","wikipedia":"en:Sheffield to Lincoln Line"},"4202109":{"to":"Guildford","ref":"NGL","name":"New Guildford Line","type":"route","route":"railway","wikidata":"Q7007887","wikipedia":"en:New Guildford Line"},"4254156":{"name":"Embsay & Bolton Abbey Steam Railway","type":"route","route":"railway"},"4740605":{"name":"Wick and Lybster Light Railway","type":"route","route":"railway","end_date":"1944-04-01","wikipedia":"en:Wick and Lybster Light Railway","start_date":"1903-07-01","description":"abandoned light railway line, closed in 1951"},"4855322":{"name":"Fen Line","type":"route","route":"railway"},"4855325":{"name":"Stansted Airport Rail Branch","type":"route","route":"railway"},"4859764":{"name":"Blackfriars to Herne Hill Line","type":"route","route":"railway","operator":"Network Rail","operator:wikidata":"Q1501071"},"4859765":{"name":"Catford Loop","type":"route","route":"railway","operator":"South Eastern"},"4859766":{"name":"South London Line","type":"route","route":"railway","operator":"LOROL"},"4859767":{"name":"West London Line","type":"route","route":"railway"},"4859970":{"name":"Brighton Main Line (Victoria Branch)","type":"route","route":"railway","operator":"Network Rail","operator:wikidata":"Q1501071"},"4859971":{"name":"Southwestern Main Line","type":"route","route":"railway","operator":"Network Rail","operator:wikidata":"Q1501071"},"4860101":{"name":"Brighton Main Line","type":"route","route":"railway","operator":"Network Rail","operator:wikidata":"Q1501071"},"4860102":{"name":"Sutton and Mole Valley Line","type":"route","route":"railway","operator":"Network Rail","wikidata":"Q7650348","wikipedia":"en:Sutton and Mole Valley lines","operator:wikidata":"Q1501071"},"4860729":{"name":"Crystal Palace Line","type":"route","route":"railway"},"4860730":{"name":"Herne Hill to Tulse Hill Rail Link","type":"route","route":"railway","operator":"Network Rail","operator:wikidata":"Q1501071"},"4860731":{"name":"Southeastern Main Line","type":"route","route":"railway","operator":"Network Rail","operator:wikidata":"Q1501071"},"4863685":{"name":"Reading Main Line","type":"route","route":"railway","operator":"Network Rail","operator:wikidata":"Q1501071"},"4863697":{"name":"Hounslow Loop","type":"route","route":"railway","operator":"Network Rail","operator:wikidata":"Q1501071"},"4863705":{"name":"Kingston Loop Line","type":"route","route":"railway","operator":"Network Rail","operator:wikidata":"Q1501071"},"4863706":{"name":"Shepperton Branch","type":"route","route":"railway","operator":"Network Rail","operator:wikidata":"Q1501071"},"4863764":{"name":"Dudding Hill Freight Link","type":"route","route":"railway","operator":"Network Rail","operator:wikidata":"Q1501071"},"4863877":{"name":"Gospel Oak to Barking Line","type":"route","route":"railway"},"4863915":{"name":"Hertford Loop trackage","type":"route","route":"railway","operator":"Network Rail","operator:wikidata":"Q1501071"},"4863942":{"name":"East Hertford Branch trackage","type":"route","route":"railway","operator":"Network Rail","operator:wikidata":"Q1501071"},"5122623":{"name":"Great Western Main Line","type":"route","route":"railway","operator":"Network Rail","wikidata":"Q1415063","not:operator:wikidata":"Q1501071"},"5130485":{"name":"West Coastway Line","type":"route","route":"railway","operator":"Network Rail","operator:wikidata":"Q1501071"},"5144328":{"name":"Calder Valley Line","type":"route","route":"railway","operator":"Network Rail","wikidata":"Q5019066","wikipedia":"en:Calder Valley line","operator:wikidata":"Q1501071"},"5144329":{"name":"Caldervale-Huddersfield Line Link","type":"route","route":"railway","operator":"Network Rail","operator:wikidata":"Q1501071"},"5144330":{"name":"East Coast Main Line (Leeds Branch)","type":"route","route":"railway","operator":"Network Rail","operator:wikidata":"Q1501071"},"5144929":{"name":"Crewe to Manchester Line","type":"route","route":"railway","operator":"Network Rail","operator:wikidata":"Q1501071"},"5144932":{"name":"Styal Line","type":"route","route":"railway","operator":"Network Rail","operator:wikidata":"Q1501071"},"5368585":{"name":"Greenwich Line","type":"route","route":"railway","operator":"Network Rail","operator:wikidata":"Q1501071"},"5398146":{"name":"Dart A - Dartford Line via Abbey Wood","type":"route","route":"railway","operator":"Network Rail","operator:wikidata":"Q1501071"},"5398147":{"name":"Dart B - Dartford Line via Bexleyheath","type":"route","route":"railway","operator":"Network Rail","operator:wikidata":"Q1501071"},"5398148":{"name":"Dart C - Dartford Line via Crayford","type":"route","route":"railway","operator":"Network Rail","operator:wikidata":"Q1501071"},"5398149":{"name":"Greenwich Park Branch Line","type":"route","route":"railway","operator":"Network Rail","operator:wikidata":"Q1501071"},"5398150":{"name":"North Kent Line","type":"route","route":"railway","operator":"Network Rail","wikidata":"Q529213","operator:wikidata":"Q1501071"},"5398151":{"name":"South Eastern Main Line (slow lines)","type":"route","route":"railway","operator":"Network Rail","operator:wikidata":"Q1501071"},"5451493":{"name":"Kettering - Manton Junction","type":"route","route":"railway","operator":"Network Rail","operator:wikidata":"Q1501071"},"5451494":{"name":"Peterborough - Syston","type":"route","route":"railway"},"5582190":{"name":"Lochaber Narrow Gauge Railway","type":"route","gauge":"3'0\\\"","route":"railway","end_date":"1977","loc_name":"Old Puggy Line","wikidata":"Q6665052","wikipedia":"en:Lochaber Narrow Gauge Railway","start_date":"1925"},"6157930":{"name":"Ashton Packet Boat Company","type":"route","route":"railway"},"6170220":{"name":"Bluebell Railway (Full Route of Oxted Line)","type":"route","route":"railway","wikidata":"Q2187487","wikipedia":"en:Bluebell Railway","description":"partially preserved, partially abandoned"},"6682527":{"name":"Golden Valley Line","type":"route","route":"railway","operator":"National Rail"},"6845806":{"name":"Richmond Light Railway","type":"route","gauge":"600","route":"railway","source":"https://www.youtube.com/watch?v=P7iCoWa4pO0","railway":"narrow_gauge","operator":"Jeremy Martin","electrified":"no"},"7035638":{"name":"Mole Valley Line","type":"route","route":"railway","operator":"Network Rail","operator:wikidata":"Q1501071"},"7035646":{"name":"Bookham Branch","type":"route","route":"railway","operator":"Network Rail","operator:wikidata":"Q1501071"},"7042053":{"name":"Chiltern Main Line (southern part)","type":"route","route":"railway","operator":"Network Rail","wikidata":"Q287874","operator:wikidata":"Q1501071"},"7321431":{"ref":"SC073","name":"Kilwinning Jn to Largs","type":"route","route":"railway"},"7321432":{"ref":"SC067","name":"Wemyss Bay Jn to Wemyss Bay","type":"route","route":"railway"},"7321434":{"ref":"SC061","name":"Shields Jn to Paisley Canal","type":"route","route":"railway"},"7321435":{"to":"Stranraer","ref":"SC059","from":"Glasgow Central","name":"Glasgow Central to Stranraer","type":"route","route":"railway"},"7321436":{"ref":"SC057","name":"Cathcart East Jn to Cathcart North Jn","type":"route","route":"railway"},"7321437":{"ref":"SC055","name":"Newton, Hamilton Jn to Cathcart West Jn","type":"route","route":"railway"},"7321438":{"ref":"SC053","name":"Nellston to Cathcart West Jn","type":"route","route":"railway"},"7321439":{"ref":"SC051","name":"Muirhouse Central Jn to Muirshouse North Jn (Via Cathcart) (Cathcart Circle)","type":"route","route":"railway"},"7321440":{"ref":"SC049","name":"Muirhouse Central Jn to Terminal Jn","type":"route","route":"railway"},"7321441":{"ref":"SC047","name":"Muirhouse South Jn to Larkfield Jn","type":"route","route":"railway"},"7321442":{"ref":"SC045","name":"East Kilbride Station to Pollokshaws Junction","type":"route","route":"railway"},"7321443":{"ref":"SC039","name":"Kilmarnock to Barassie","type":"route","route":"railway"},"7321444":{"ref":"SC031","name":"Gretna Jn to Glasgow Central (via Kilmarnock)","type":"route","route":"railway"},"7321445":{"ref":"SC029","name":"Larkfield Jn to Shields Jn Incl. Shields Jn to Terminus Jn (Up Through Terminus)","type":"route","route":"railway"},"7321446":{"ref":"SC027","name":"Rutherglen West Jn to Rutherglen North Jn","type":"route","route":"railway"},"7321447":{"ref":"SC025","name":"Rutherglen Central Jn to Finnieston Incl to Bridgeton Yard (Via Arrival Line)(Goods Line)","type":"route","route":"railway"},"7321448":{"ref":"SC024","name":"Larkhall to Haughhead Jn","type":"route","route":"railway"},"7321449":{"ref":"SC023","name":"Motherwell to Newton, Hamilton Jn (via Hamilton)","type":"route","route":"railway"},"7321450":{"ref":"SC015","name":"Mossend East Jn to Mossend North Jn (North Curve)","type":"route","route":"railway"},"7321451":{"ref":"SC017","name":"Mossend East Jn to Mossend South Jn (East Curve)","type":"route","route":"railway"},"7321452":{"ref":"SC013","name":"Wishal Central Jn to Shieldmuir (Wishal Connecting Line)","type":"route","route":"railway"},"7321453":{"ref":"SC011","name":"Law Junction to Uddingston Junction (via Holytown)","type":"route","route":"railway","network":"Network Rail","operator":"Network Rail","operator:wikidata":"Q1501071"},"7321454":{"ref":"SC009","name":"Lanark to Lanark Jn","type":"route","route":"railway"},"7321455":{"ref":"SC007","name":"Midcalder Jn to Holytown Jn","type":"route","route":"railway"},"7321456":{"ref":"SC005","name":"Carstairs Station Jn to Carstairs East Jn","type":"route","route":"railway"},"7321457":{"ref":"SC003","name":"Carstairs South Jn to Haymarket East Jn","type":"route","route":"railway"},"7321458":{"ref":"SC001","name":"Gretna Jn to Glasgow Central (via Beattock)","type":"route","route":"railway","wikidata":"Q119974440"},"7345737":{"ref":"SC143","name":"Crianlarich to Oban","type":"route","route":"railway"},"7345738":{"ref":"SC141","name":"Craigendoran Jn to Fort William","type":"route","route":"railway"},"7345739":{"ref":"SC136","name":"Hyndland North Jn to Hyndland West Jn","type":"route","route":"railway"},"7345740":{"ref":"SC135","name":"Dalreoch Jn to Balloch","type":"route","route":"railway"},"7345741":{"ref":"SC133","name":"Westerton Jn to Milngavie","type":"route","route":"railway"},"7345742":{"ref":"SC131","name":"High Street Jn to Shields Jn","type":"route","route":"railway"},"7345743":{"ref":"SC129","name":"Springburn to Bellgrove Jn","type":"route","route":"railway"},"7345744":{"ref":"SC125","name":"Hyndland East Jn to Dalmuir (via Yoker)","type":"route","route":"railway"},"7345745":{"ref":"SC123","name":"Bathgate to Helensburgh (via Singer)","type":"route","route":"railway"},"7345746":{"ref":"SC119","name":"Greenhill Upper Jn to Dundee","type":"route","route":"railway"},"7345747":{"ref":"SC116","name":"Cowlairs East Jn to Cowlairs North Jn","type":"route","route":"railway"},"7345748":{"ref":"SC1150","name":"Maryhill Park Jn to Anniesland Bay Platform","type":"route","route":"railway"},"7345749":{"ref":"SC115","name":"Cowlairs West Jn to Knightwood North Jn","type":"route","route":"railway"},"7345750":{"ref":"SC113","name":"Winchburgh Jn to Dalmeny Jn","type":"route","route":"railway"},"7345751":{"ref":"SC111","name":"Newbridge Jn to Bathgate","type":"route","route":"railway"},"7345752":{"ref":"SC110","name":"Carmouirs East Jn to Larbert Jn","type":"route","route":"railway"},"7345753":{"ref":"SC109","name":"Polmont Jn to Greenhill Upper Jn (via Falkirk Grahamston)","type":"route","route":"railway"},"7345754":{"ref":"SC107","name":"Edinburgh Waverley to Glasgow Queen Street (via Falkirk High)","type":"route","route":"railway"},"7345755":{"ref":"SC106","name":"Sighthill West Jn to Cowlairs South Jn","type":"route","route":"railway"},"7345756":{"ref":"SC105","name":"Gartsherrie South Jn to Cartosh Jn","type":"route","route":"railway"},"7345757":{"ref":"SC103","name":"Garnqueen North Jn to Cowlairs West Jn","type":"route","route":"railway"},"7345758":{"ref":"SC101","name":"Coatbridge Jn to Langloan Jn","type":"route","route":"railway"},"7345759":{"ref":"SC099","name":"Whifflet North Junction to Rutherglen East junction","type":"route","route":"railway"},"7345760":{"ref":"SC097","name":"Whifflet South Junction to Sunnyside Junction","type":"route","route":"railway"},"7345761":{"ref":"SC019","name":"Mossend South Jn to Mossend West Jn","type":"route","route":"railway"},"7345762":{"ref":"SC093","name":"Motherwell to Greenhill Lower Junction","type":"route","route":"railway"},"7345763":{"ref":"SC089","name":"Dalrymple Jn to Chalmerston (Goods Line)","type":"route","route":"railway"},"7345764":{"ref":"SC089","name":"Annbank to Killoch Colliery (Goods Line)","type":"route","route":"railway"},"7345765":{"ref":"SC087","name":"Newton Jn to Mauchline (Goods Line)","type":"route","route":"railway"},"7345766":{"ref":"SC081","name":"Byrehill Jn to Dubbs Jn","type":"route","route":"railway"},"7345767":{"ref":"SC077","name":"Ardrossan South Beach to Ardrossan Harbour","type":"route","route":"railway"},"7514384":{"name":"Chessington Branch Line","type":"route","route":"railway","operator":"South Western Railway"},"7521624":{"name":"Felixstowe W10 gauge corridor","type":"route","route":"railway"},"7521625":{"name":"Harwich branch line","type":"route","route":"railway"},"7521653":{"name":"North London Line","type":"route","route":"railway"},"7521764":{"name":"West Coast Main Line","type":"route","route":"railway","operator":"Network Rail","operator:wikidata":"Q1501071"},"7521824":{"name":"Chiltern Main Line (northern part)","type":"route","route":"railway","wikidata":"Q287874"},"7521840":{"name":"Southampton W10 gauge corridor","type":"route","route":"railway"},"7521947":{"name":"Coventry to Nuneaton Line","type":"route","route":"railway"},"8074777":{"name":"Eaton Park Miniature Railway","type":"route","route":"railway"},"8265668":{"name":"Hallam Line Trackage","type":"route","route":"railway","name:de":"Hallam-Bahn","operator":"Network Rail","operator:wikidata":"Q1501071"},"8267193":{"name":"Huddersfield-Wakefield Line trackage","type":"route","route":"railway","name:de":"Verbindungsbahn Huddersfield-Wakefield","operator":"Network Rail","operator:wikidata":"Q1501071"},"8279867":{"to":"Manchester","from":"Bradford","name":"Caldervale Line trackage","type":"route","route":"railway","operator":"Network Rail","operator:wikidata":"Q1501071"},"8309089":{"name":"Welsh Marches Line","type":"route","route":"railway","old_name":"Crewe and Shrewsbury Railway","wikidata":"Q1463614","wikipedia":"en:Welsh Marches Line","start_date":"1858"},"8309560":{"name":"Preston to Blackpool North (trackage)","type":"route","route":"railway","operator":"Network Rail","operator:wikidata":"Q1501071"},"8862290":{"name":"Windsor Line","type":"route","route":"railway","operator":"Network Rail","operator:wikidata":"Q1501071"},"8906849":{"name":"Bredgar and Wormshill Light Railway","type":"route","route":"railway","wikipedia":"en:Bredgar and Wormshill Light Railway"},"9109275":{"to":"Brighton","from":"London","name":"BML2","type":"route","route":"railway"},"9392832":{"name":"Chester to Manchester Line","type":"route","route":"railway","name:de":"Chester-Manchester-Bahn","operator":"Network Rail","operator:wikidata":"Q1501071"},"9392833":{"name":"Mid-Cheshire Line","type":"route","route":"railway","name:de":"Mid-Cheshire-Bahn"},"9499188":{"name":"Nottingham-Grantham Line","type":"route","route":"railway","operator":"Network Rail","wikidata":"Q7063727","wikipedia":"en:Nottingham–Grantham line","operator:wikidata":"Q1501071"},"9502179":{"name":"Crewe to Northwich Freight Line","type":"route","route":"railway"},"9505414":{"name":"Shirebrook to Lincoln Line","type":"route","route":"railway"},"9531257":{"name":"Buxton to Tunstead line","type":"route","route":"railway"},"9531258":{"name":"Buxton to Ashbourne line","type":"route","route":"railway"},"9531259":{"name":"Great Rocks line","type":"route","route":"railway","wikidata":"Q96379888","wikipedia":"en:Great Rocks Line"},"9774543":{"name":"Cornish Main Line","type":"route","route":"railway","wikidata":"Q5171823","wikipedia":"en:Cornish Main Line"},"9775085":{"to":"Penzance","from":"Paddington","name":"Paddington to Penzance","type":"route","route":"railway","operator":"GWR","not:operator:wikidata":"Q1501071"},"9786306":{"name":"Cotswold Line","type":"route","route":"railway","operator":"Network Rail","operator:wikidata":"Q1501071"},"9896125":{"name":"Maidstone East Line","type":"route","route":"railway","operator":"Network Rail","wikidata":"Q6735524","wikipedia":"en:Maidstone line","operator:wikidata":"Q1501071"},"9967818":{"name":"Marshlink Line","type":"route","route":"railway","operator":"Network Rail","wikipedia":"en:Marshlink line","operator:wikidata":"Q1501071"},"9967819":{"name":"East Coastway Line","type":"route","route":"railway","operator":"Network Rail","wikipedia":"en:East Coastway line","operator:wikidata":"Q1501071"},"9993341":{"name":"Tattenham Corner Line","type":"route","route":"railway","operator":"Network Rail","wikidata":"Q7688392","wikipedia":"en:Tattenham Corner line","operator:wikidata":"Q1501071"},"10001165":{"name":"Whistlestop Valley","type":"route","route":"railway","old_name":"Kirklees Light Railway","wikidata":"Q6415760","wikipedia":"en:Whistlestop Valley"},"10002436":{"name":"Norwood to Sutton Line","type":"route","route":"railway","operator":"Network Rail","operator:wikidata":"Q1501071"},"10002437":{"name":"Old Southeastern Main Line","type":"route","route":"railway","operator":"Network Rail","operator:wikidata":"Q1501071"},"10066890":{"to":"Crystal Palace","from":"Nunhead","name":"Crystal Palace and South London Junction Railway","type":"route","route":"railway","wikidata":"Q5191316","abandoned":"yes","wikipedia":"en:Crystal Palace and South London Junction Railway"},"10078129":{"name":"Shenfield Metro","type":"route","route":"railway","operator":"Network Rail","operator:wikidata":"Q1501071"},"11037499":{"to":"Edinburgh Waverley","from":"London King's Cross","name":"East Coast Relief Line","type":"route","route":"railway"},"11039552":{"name":"Durham Coast Line","type":"route","route":"railway"},"11039553":{"name":"Tees Valley Line","type":"route","route":"railway","wikidata":"Q7694539","wikipedia":"en:Tees Valley Line"},"11039554":{"ref":"LEN3","name":"Northallerton-Eaglescliff Line","type":"route","route":"railway"},"11039555":{"ref":"LLP3","name":"Northallerton Low Level Line","type":"route","route":"railway"},"11039643":{"name":"Temple Hirst - Selby Line","type":"route","route":"railway","operator":"Network Rail"},"11039980":{"name":"Pontefract Line","type":"route","route":"railway","operator":"Network Rail","operator:wikidata":"Q1501071"},"11039981":{"to":"Milford Junction","from":"Altofts Junction","name":"Wakefield - York Line","type":"route","route":"railway","operator":"Network Rail","operator:wikidata":"Q1501071"},"11040448":{"to":"Shaftholme Junction","from":"Knottingley West Junction","name":"Knottingley - Shaftholme Line","type":"route","route":"railway","operator":"Network Rail","operator:wikidata":"Q1501071"},"11040449":{"to":"Stainforth Junction","from":"Adwick Junction","name":"Adwick - Stainforth Line","type":"route","route":"railway","operator":"National Grid"},"11040450":{"to":"Thorne Junction","from":"Kirk Sandall","name":"Kirk Sandall - Thorne Relief Line","type":"route","route":"railway","operator":"Network Rail","operator:wikidata":"Q1501071"},"11040451":{"to":"Gilberdyke Junction","from":"Thorne Junction","name":"Thorne - Gilberdyke Line","type":"route","route":"railway","operator":"Network Rail","operator:wikidata":"Q1501071"},"11040452":{"to":"Scunthorpe","from":"Doncaster Station","name":"Doncaster - Scunthorpe","type":"route","route":"railway","operator":"Network Rail","operator:wikidata":"Q1501071"},"11047224":{"to":"Newcastle","from":"Carlisle","name":"Tyne Valley Line","type":"route","route":"railway","alt_name":"Hadrian's Wall Country Line","operator":"Network Rail","operator:wikidata":"Q1501071"},"11084011":{"name":"Lambourn Valley Railway","type":"route","route":"railway"},"11151724":{"to":"Midhurst LBSC #1","via":"Petworth","from":"Hardham Junction","name":"Hardham-Midhurst Line","type":"route","route":"railway","disused:route":"train","disused:public_transport:version":"2"},"11162109":{"name":"Midhurst-Petersfield Line","type":"route","route":"railway","historic:railway":"rail"},"11165903":{"name":"Midhurst-Chichester Line","type":"route","route":"railway","closed":"1991","historic:railway":"rail"},"11649212":{"name":"Exeter and Devonport Line","type":"route","route":"railway"},"11966335":{"to":"Patchway Junction","from":"Bristol Temple Meads","name":"Filton Relief Line","type":"route","route":"railway","operator":"Network Rail","operator:wikidata":"Q1501071"},"11966336":{"to":"Stoke Gifford Junction","from":"Bristol Temple Meads","name":"Filton Main Line","type":"route","route":"railway","operator":"Network Rail","operator:wikidata":"Q1501071"},"12028688":{"name":"Burnley to Todmorden line","type":"route","route":"railway","operator":"Network Rail","operator:wikidata":"Q1501071"},"12109751":{"name":"Liskeard and Caradon Railway","type":"route","route":"railway","abandoned":"yes"},"12110275":{"name":"Brixham Branch Line","type":"route","route":"railway","abandoned":"yes"},"12110712":{"name":"Princetown Branch Line","type":"route","route":"railway","abandoned":"yes"},"12112530":{"name":"Teign Valley Line","type":"route","route":"railway","abandoned":"yes"},"12113453":{"to":"Kingsbridge","from":"Brent","name":"Kingsbridge Branch Line","type":"route","route":"railway","abandoned":"yes"},"12381889":{"name":"Manchester to Southport Line","type":"route","route":"railway","operator":"Arriva Rail North","wikidata":"Q6747592","wikipedia":"en:Manchester–Southport line"},"12829643":{"name":"Wirksworth Branch Line","type":"route","route":"railway","operator":"Ecclesbourne Valley Railway"},"13370639":{"to":"Lymington","from":"Brockenhurst","name":"Lymington Branch Line","type":"route","owner":"Network Rail","route":"railway","operator":"Network Rail","operator:wikidata":"Q1501071"},"14392921":{"name":"Thornbury Branch Line","type":"route","route":"railway"},"14660111":{"name":"Stockton and Darlington Railway","type":"route","route":"railway","alt_name":"Stockton & Darlington Railway;S&DR","old_name":"Stockton & Darlington Railway Company","start_date":"1825-09-27","historic:railway":"rail"},"14894294":{"to":"Radyr","from":"Cardiff Central","name":"Cardiff City Line","type":"route","route":"railway","name:de":"Bahnstrecke Cardiff - Radyr"},"14894411":{"to":"Bridgend","from":"Cardiff Central","name":"Vale of Glamorgan Line","type":"route","route":"railway","name:de":"Bahnstrecke Cardiff - Bridgend"},"14894687":{"to":"Aberdare","from":"Abercynon","name":"Merthyr Line - Aberdare Branch","type":"route","route":"railway","name:de":"Bahnstrecke Abercynon - Aberdare","operator":"Transport for Wales","operator:wikidata":"Q48740007"},"14894688":{"to":"Merthyr Tydfil","from":"Cardiff Queen Street","name":"Cardiff and Merthyr Line","type":"route","route":"railway","name:de":"Bahnstrecke Cardiff - Merthyr Tydfil","operator":"Transport for Wales","operator:wikidata":"Q48740007"},"14894689":{"to":"Treherbert","from":"Pontypridd (North) Junction","name":"Rhondda Line","type":"route","route":"railway","name:de":"Bahnstrecke Pontypridd - Treherbert","operator":"Transport for Wales","operator:wikidata":"Q48740007"},"14894724":{"to":"Rhymney Bridge Junction","from":"Cardiff Central","name":"Rhymney Valley Line (duplicate)","note":"This is a duplicate of https://www.openstreetmap.org/relation/287276","type":"route","route":"railway","name:de":"Bahnstrecke Cardiff - Rhymney"},"14895019":{"name":"Gwaun Cae Gurwen Branch","type":"route","route":"railway"},"14895020":{"name":"Swansea Vale Line","type":"route","route":"railway"},"14895021":{"name":"Garnant Branch","type":"route","route":"railway"},"14895022":{"name":"Porthcawl Branch","type":"route","route":"railway"},"14895023":{"name":"Ogmore Vale Extension Line","type":"route","route":"railway"},"14937814":{"from":"Dearness Valley Junction","name":"Deerness Valley Railway","type":"route","route":"railway","wikidata":"Q16249446","wikipedia":"en:Deerness Valley Railway"},"14937903":{"name":"Deerness Valley Branch","type":"route","route":"railway","operator":"Stockton and Darlington Railway"},"14938641":{"ref":"DAE2","from":"Wear Valley Junction","name":"Darlington and Eastgate-In-Weardale Line","type":"route","route":"railway","operator":"LNER"},"14965348":{"to":"Hellifield","from":"Blackburn","name":"Ribble Valley Line","type":"route","route":"railway","name:de":"Bahnstrecke Blackburn - Hellifield","wikidata":"Q7322244","wikipedia":"en:Ribble Valley line"},"15437584":{"to":"Aylesbury","from":"London Marylebone","name":"London-Aylesbury Line","type":"route","route":"railway","operator":"Network Rail","operator:wikidata":"Q1501071"},"15595164":{"name":"Alcester Branch","type":"route","route":"railway","wikidata":"Q4713004","wikipedia":"en:Alcester–Bearley branch line"},"15999310":{"to":"Taunton","from":"Barnstaple","name":"Barnstaple Branch","type":"route","route":"railway"},"15999311":{"name":"Tiverton and North Devon Line","type":"route","route":"railway"},"15999312":{"to":"Ilfracombe","from":"Barnstaple","name":"Ilfracombe Branch","type":"route","route":"railway"},"16017506":{"to":"Plymouth","from":"Launceston","name":"Launceston Branch","type":"route","route":"railway"},"16032738":{"to":"Glasgow Central","ref":"SC059","from":"Stranraer","name":"Stranraer to Glasgow Central","type":"route","route":"railway"},"16213443":{"name":"Caernarvon to Llanberis Line","type":"route","route":"railway","wikidata":"Q5043798","wikipedia":"en:Carnarvon and Llanberis Railway"},"16247116":{"name":"Engine Line","type":"route","route":"railway"}}